{
  "type": "FeatureCollection",
  "features": [
    {
      "type": "Feature",
      "properties": {
        "norad_id": 30759,
        "name": "FENGYUN 1C DEB",
        "group": "fengyun-1c-debris",
        "lat": -60.98911899443553,
        "lon": 108.92615539845578,
        "alt_km": 722.1771636278636,
        "timestamp": "2025-12-10T07:43:55.057912+00:00",
        "meta_object_name": "FENGYUN 1C DEB",
        "meta_object_id": "1999-025ATV",
        "meta_epoch": "2025-12-09T19:30:27.050976",
        "meta_mean_motion": 14.54410642,
        "meta_eccentricity": 0.0009346,
        "meta_inclination": 99.2564,
        "meta_ra_of_asc_node": 91.261,
        "meta_arg_of_pericenter": 173.7501,
        "meta_mean_anomaly": 338.4428,
        "meta_ephemeris_type": 0,
        "meta_classification_type": "U",
        "meta_norad_cat_id": 30759,
        "meta_element_set_no": 999,
        "meta_rev_at_epoch": 97612,
        "meta_bstar": 0.0041348,
        "meta_mean_motion_dot": 0.00017584,
        "meta_mean_motion_ddot": 0,
        "tle_line1": "1 30759U 99025ATV 25343.81281309  .00017584  00000+0  41348-2 0  9994",
        "tle_line2": "2 30759  99.2564  91.2610 0009346 173.7501 338.4428 14.54410642976124"
      },
      "geometry": {
        "type": "Point",
        "coordinates": [
          108.92615539845578,
          -60.98911899443553
        ]
      }
    },
    {
      "type": "Feature",
      "properties": {
        "norad_id": 30760,
        "name": "FENGYUN 1C DEB",
        "group": "fengyun-1c-debris",
        "lat": 43.94522580113154,
        "lon": -27.54012994109612,
        "alt_km": 849.5794152547896,
        "timestamp": "2025-12-10T07:43:55.057922+00:00",
        "meta_object_name": "FENGYUN 1C DEB",
        "meta_object_id": "1999-025ATW",
        "meta_epoch": "2025-12-09T16:08:31.466688",
        "meta_mean_motion": 14.05176542,
        "meta_eccentricity": 0.0053008,
        "meta_inclination": 98.8219,
        "meta_ra_of_asc_node": 340.4366,
        "meta_arg_of_pericenter": 352.2181,
        "meta_mean_anomaly": 7.8159,
        "meta_ephemeris_type": 0,
        "meta_classification_type": "U",
        "meta_norad_cat_id": 30760,
        "meta_element_set_no": 999,
        "meta_rev_at_epoch": 96179,
        "meta_bstar": 0.00029751,
        "meta_mean_motion_dot": 4.43e-06,
        "meta_mean_motion_ddot": 0,
        "tle_line1": "1 30760U 99025ATW 25343.67258642  .00000443  00000+0  29751-3 0  9995",
        "tle_line2": "2 30760  98.8219 340.4366 0053008 352.2181   7.8159 14.05176542961796"
      },
      "geometry": {
        "type": "Point",
        "coordinates": [
          -27.54012994109612,
          43.94522580113154
        ]
      }
    },
    {
      "type": "Feature",
      "properties": {
        "norad_id": 30761,
        "name": "FENGYUN 1C DEB",
        "group": "fengyun-1c-debris",
        "lat": -65.21070412094234,
        "lon": 70.32862382041262,
        "alt_km": 762.894212988781,
        "timestamp": "2025-12-10T07:43:55.057932+00:00",
        "meta_object_name": "FENGYUN 1C DEB",
        "meta_object_id": "1999-025ATX",
        "meta_epoch": "2025-12-09T12:10:51.765312",
        "meta_mean_motion": 14.35742025,
        "meta_eccentricity": 0.0084696,
        "meta_inclination": 98.965,
        "meta_ra_of_asc_node": 269.4692,
        "meta_arg_of_pericenter": 323.4314,
        "meta_mean_anomaly": 36.1107,
        "meta_ephemeris_type": 0,
        "meta_classification_type": "U",
        "meta_norad_cat_id": 30761,
        "meta_element_set_no": 999,
        "meta_rev_at_epoch": 97695,
        "meta_bstar": 0.0018396,
        "meta_mean_motion_dot": 5.494e-05,
        "meta_mean_motion_ddot": 0,
        "tle_line1": "1 30761U 99025ATX 25343.50754358  .00005494  00000+0  18396-2 0  9996",
        "tle_line2": "2 30761  98.9650 269.4692 0084696 323.4314  36.1107 14.35742025976954"
      },
      "geometry": {
        "type": "Point",
        "coordinates": [
          70.32862382041262,
          -65.21070412094234
        ]
      }
    },
    {
      "type": "Feature",
      "properties": {
        "norad_id": 30762,
        "name": "FENGYUN 1C DEB",
        "group": "fengyun-1c-debris",
        "lat": 30.247568983864056,
        "lon": -30.039203922559278,
        "alt_km": 893.2750360719328,
        "timestamp": "2025-12-10T07:43:55.057943+00:00",
        "meta_object_name": "FENGYUN 1C DEB",
        "meta_object_id": "1999-025ATY",
        "meta_epoch": "2025-12-09T11:36:12.119904",
        "meta_mean_motion": 13.98083418,
        "meta_eccentricity": 0.0197806,
        "meta_inclination": 98.8746,
        "meta_ra_of_asc_node": 334.3766,
        "meta_arg_of_pericenter": 304.1239,
        "meta_mean_anomaly": 185.4578,
        "meta_ephemeris_type": 0,
        "meta_classification_type": "U",
        "meta_norad_cat_id": 30762,
        "meta_element_set_no": 999,
        "meta_rev_at_epoch": 95592,
        "meta_bstar": 0.00090408924,
        "meta_mean_motion_dot": 1.474e-05,
        "meta_mean_motion_ddot": 0,
        "tle_line1": "1 30762U 99025ATY 25343.48347361  .00001474  00000+0  90409-3 0  9996",
        "tle_line2": "2 30762  98.8746 334.3766 0197806 304.1239 185.4578 13.98083418955920"
      },
      "geometry": {
        "type": "Point",
        "coordinates": [
          -30.039203922559278,
          30.247568983864056
        ]
      }
    },
    {
      "type": "Feature",
      "properties": {
        "norad_id": 30763,
        "name": "FENGYUN 1C DEB",
        "group": "fengyun-1c-debris",
        "lat": 75.27319289054799,
        "lon": 18.950406789670552,
        "alt_km": 698.3806358191705,
        "timestamp": "2025-12-10T07:43:55.057953+00:00",
        "meta_object_name": "FENGYUN 1C DEB",
        "meta_object_id": "1999-025ATZ",
        "meta_epoch": "2025-12-09T15:41:16.999008",
        "meta_mean_motion": 14.608946,
        "meta_eccentricity": 0.0022867,
        "meta_inclination": 98.892,
        "meta_ra_of_asc_node": 54.7899,
        "meta_arg_of_pericenter": 277.8088,
        "meta_mean_anomaly": 246.5803,
        "meta_ephemeris_type": 0,
        "meta_classification_type": "U",
        "meta_norad_cat_id": 30763,
        "meta_element_set_no": 999,
        "meta_rev_at_epoch": 97099,
        "meta_bstar": 0.0062588,
        "meta_mean_motion_dot": 0.00030822,
        "meta_mean_motion_ddot": 0,
        "tle_line1": "1 30763U 99025ATZ 25343.65366897  .00030822  00000+0  62588-2 0  9996",
        "tle_line2": "2 30763  98.8920  54.7899 0022867 277.8088 246.5803 14.60894600970994"
      },
      "geometry": {
        "type": "Point",
        "coordinates": [
          18.950406789670552,
          75.27319289054799
        ]
      }
    },
    {
      "type": "Feature",
      "properties": {
        "norad_id": 30764,
        "name": "FENGYUN 1C DEB",
        "group": "fengyun-1c-debris",
        "lat": 74.38021738763311,
        "lon": -79.00385848333399,
        "alt_km": 481.9339016440608,
        "timestamp": "2025-12-10T07:43:55.057963+00:00",
        "meta_object_name": "FENGYUN 1C DEB",
        "meta_object_id": "1999-025AUA",
        "meta_epoch": "2025-12-08T20:50:01.693824",
        "meta_mean_motion": 15.287315,
        "meta_eccentricity": 0.00760643,
        "meta_inclination": 98.779,
        "meta_ra_of_asc_node": 312.8401,
        "meta_arg_of_pericenter": 183.2908,
        "meta_mean_anomaly": 176.7837,
        "meta_ephemeris_type": 0,
        "meta_classification_type": "U",
        "meta_norad_cat_id": 30764,
        "meta_element_set_no": 999,
        "meta_rev_at_epoch": 1163,
        "meta_bstar": 0.0013667624,
        "meta_mean_motion_dot": 0.00041735,
        "meta_mean_motion_ddot": 0,
        "tle_line1": "1 30764U 99025AUA 25342.86807516  .00041735  00000+0  13668-2 0  9997",
        "tle_line2": "2 30764  98.7790 312.8401 0076064 183.2908 176.7837 15.28731500 11637"
      },
      "geometry": {
        "type": "Point",
        "coordinates": [
          -79.00385848333399,
          74.38021738763311
        ]
      }
    },
    {
      "type": "Feature",
      "properties": {
        "norad_id": 30765,
        "name": "FENGYUN 1C DEB",
        "group": "fengyun-1c-debris",
        "lat": 74.0332580176696,
        "lon": -2.3716675043927253,
        "alt_km": 873.4041238289929,
        "timestamp": "2025-12-10T07:43:55.057973+00:00",
        "meta_object_name": "FENGYUN 1C DEB",
        "meta_object_id": "1999-025AUB",
        "meta_epoch": "2025-12-09T15:06:33.746400",
        "meta_mean_motion": 14.14696779,
        "meta_eccentricity": 0.0068137,
        "meta_inclination": 98.7881,
        "meta_ra_of_asc_node": 29.6755,
        "meta_arg_of_pericenter": 217.9299,
        "meta_mean_anomaly": 293.8065,
        "meta_ephemeris_type": 0,
        "meta_classification_type": "U",
        "meta_norad_cat_id": 30765,
        "meta_element_set_no": 999,
        "meta_rev_at_epoch": 96778,
        "meta_bstar": 0.0012718,
        "meta_mean_motion_dot": 2.46e-05,
        "meta_mean_motion_ddot": 0,
        "tle_line1": "1 30765U 99025AUB 25343.62955725  .00002460  00000+0  12718-2 0  9996",
        "tle_line2": "2 30765  98.7881  29.6755 0068137 217.9299 293.8065 14.14696779967786"
      },
      "geometry": {
        "type": "Point",
        "coordinates": [
          -2.3716675043927253,
          74.0332580176696
        ]
      }
    }
  ]
}